{"fetched_at":"2026-03-29T16:36:15Z","count":15609,"tles":[{"name":"STARLINK-34647","line1":"1 64904U 25157A   26087.85036774  .00024479  00000+0  83639-3 0  9993","line2":"2 64904  53.1592 256.9368 0001138  98.7513 261.3617 15.30180996 39049","category":"Starlink"}]}