{
  "norad_id": 64904,
  "name": "STARLINK-34647",
  "history": [
    {
      "epoch": "2026-03-28T20:24:31.772736",
      "apogee_km": 476.05227872065825,
      "perigee_km": 474.491346329517,
      "latitude_deg": 1.1705346245318173,
      "longitude_deg": 32.03530303994194,
      "semi_major_axis_km": 6853.408812525087,
      "eccentricity": 0.00011388,
      "inclination_deg": 53.1592,
      "raan_deg": 256.9368,
      "arg_perigee_deg": 98.7513,
      "mean_anomaly_deg": 261.3617,
      "mean_motion_rev_day": 15.30180996
    }
  ]
}